ONEWEB-0403             
1 50483U 21132Q   24302.34814236  .00000120  00000+0  27181-3 0  9995
2 50483  87.9064  94.2297 0001433  96.3038 263.8257 13.18690853142935
ONEWEB-0404             
1 50484U 21132R   24302.53817396  .00000486  00000+0  13355-2 0  9999
2 50484  87.8898 139.9323 0001199  92.3260 267.8005 13.11416489137493
ONEWEB-0405             
1 50485U 21132S   24302.36394870  .00000100  00000+0  22073-3 0  9999
2 50485  87.9062  94.2161 0001811 103.1923 256.9411 13.18685014143338
ONEWEB-0406             
1 50486U 21132T   24302.35288804  .00000114  00000+0  25532-3 0  9996
2 50486  87.9066  94.2330 0000899  83.9433 276.1801 13.18684307142966
ONEWEB-0407             
1 50487U 21132U   24302.34658255  .00000082  00000+0  17540-3 0  9991
2 50487  87.9061  94.2301 0001626  98.9235 261.2081 13.18684511142901
ONEWEB-0409             
1 50488U 21132V   24302.53646230  .00000200  00000+0  52742-3 0  9998
2 50488  87.8892 139.9175 0001182  79.3359 280.7902 13.11417423137389
ONEWEB-0412             
1 50489U 21132W   24302.41138750  .00000093  00000+0  20264-3 0  9993
2 50489  87.9066  94.2233 0001944 102.7166 257.4184 13.18683608143001
ONEWEB-0413             
1 50490U 21132X   24302.41611639 -.00000234  00000+0 -62737-3 0  9997
2 50490  87.9067  94.2346 0001890  96.9359 263.1988 13.18685086142947
